[Satellite]
VERSION=1.1
NAME=ODIN
NICKNAME=ODIN
TLE1=1 26702U 01007A   22342.47194526  .00004711  00000+0  28357-3 0  9996
TLE2=2 26702  97.5136 354.1276 0011900  54.6904 305.5437 15.11242682192547
STATUS=0
